NORAD_CAT_ID,OBJECT_NAME,OBJECT_TYPE,EPOCH,MEAN_MOTION,ECCENTRICITY,INCLINATION,RA_OF_ASC_NODE,ARG_OF_PERICENTER,MEAN_ANOMALY,BSTAR,MEAN_MOTION_DOT,MEAN_MOTION_DDOT,TLE_LINE0,TLE_LINE1,TLE_LINE2,SEMIMAJOR_AXIS,PERIOD,APOGEE,PERIGEE,DECAYED
53181.0,STARLINK-4273,PAYLOAD,2023-09-18 02:42:55,15.08851122,0.0001604,53.2168,220.2235,109.557,250.5595,0.00011807,1.592e-05,0.0,0 STARLINK-4273,1 53181U 22083BB  23261.11313776  .00001592  00000-0  11807-3 0  9993,2 53181  53.2168 220.2235 0001604 109.5570 250.5595 15.08851122 66140,6917.846,95.437,540.821,538.602,0.0
53181.0,STARLINK-4273,PAYLOAD,2023-09-18 04:18:18,15.08852474,0.0001431,53.2165,219.9281,96.0661,264.0494,0.00014316,1.992e-05,0.0,0 STARLINK-4273,1 53181U 22083BB  23261.17937720  .00001992  00000-0  14316-3 0  9992,2 53181  53.2165 219.9281 0001431  96.0661 264.0494 15.08852474 65511,6917.842,95.437,540.697,538.717,0.0
53181.0,STARLINK-4273,PAYLOAD,2023-09-18 20:12:10,15.08841965,0.0001364,53.216,216.9564,92.6524,267.4624,0.00012821,1.753e-05,0.0,0 STARLINK-4273,1 53181U 22083BB  23261.84178303  .00001753  00000-0  12821-3 0  9994,2 53181  53.2160 216.9564 0001364  92.6524 267.4624 15.08841965 65618,6917.874,95.437,540.683,538.796,0.0
53181.0,STARLINK-4273,PAYLOAD,2023-09-19 02:33:42,15.08851441,0.0001243,53.2161,215.7663,92.7811,267.3324,0.00014966,2.095e-05,0.0,0 STARLINK-4273,1 53181U 22083BB  23262.10673635  .00002095  00000-0  14966-3 0  9994,2 53181  53.2161 215.7663 0001243  92.7811 267.3324 15.08851441 66293,6917.845,95.437,540.57,538.851,0.0
53181.0,STARLINK-4273,PAYLOAD,2023-09-20 02:24:29,15.08835811,0.0001695,53.217,211.3076,113.176,246.9411,-0.00016014,-2.836e-05,0.0,0 STARLINK-4273,1 53181U 22083BB  23263.10034332 -.00002836  00000-0 -16014-3 0  9991,2 53181  53.2170 211.3076 0001695 113.1760 246.9411 15.08835811 66445,6917.893,95.438,540.931,538.586,0.0
53181.0,STARLINK-4273,PAYLOAD,2023-09-20 13:32:12,15.08835554,0.0001592,53.2187,209.2251,87.2707,272.8468,-0.00012322,-2.248e-05,0.0,0 STARLINK-4273,1 53181U 22083BB  23263.56403295 -.00002248  00000-0 -12322-3 0  9994,2 53181  53.2187 209.2251 0001592  87.2707 272.8468 15.08835554 65872,6917.894,95.438,540.86,538.658,0.0
53181.0,STARLINK-4273,PAYLOAD,2023-09-21 02:15:17,15.0888234,0.0001812,53.2192,206.8474,88.2451,271.8749,-0.00084897,-0.0001379,0.0,0 STARLINK-4273,1 53181U 22083BB  23264.09395054 -.00013790  00000-0 -84897-3 0  9996,2 53181  53.2192 206.8474 0001812  88.2451 271.8749 15.08882340 66596,6917.751,95.435,540.869,538.362,0.0
53181.0,STARLINK-4273,PAYLOAD,2023-09-21 05:26:04,15.08832709,0.0001541,53.2178,206.2495,97.0552,263.0615,-6.6356e-05,-1.344e-05,0.0,0 STARLINK-4273,1 53181U 22083BB  23264.22643817 -.00001344  00000-0 -66356-4 0  9997,2 53181  53.2178 206.2495 0001541  97.0552 263.0615 15.08832709 66618,6917.903,95.438,540.834,538.702,0.0
53181.0,STARLINK-4273,PAYLOAD,2023-09-22 02:06:03,15.08848569,0.0001297,53.217,202.387,94.4343,265.6797,0.00022387,3.278e-05,0.0,0 STARLINK-4273,1 53181U 22083BB  23265.08754292  .00003278  00000-0  22387-3 0  9993,2 53181  53.2170 202.3870 0001297  94.4343 265.6797 15.08848569 66745,6917.854,95.437,540.616,538.822,0.0
53181.0,STARLINK-4273,PAYLOAD,2023-09-22 05:16:49,15.08856892,0.0001384,53.2174,201.7901,92.5231,267.592,0.00029074,4.344e-05,0.0,0 STARLINK-4273,1 53181U 22083BB  23265.22001629  .00004344  00000-0  29074-3 0  9993,2 53181  53.2174 201.7901 0001384  92.5231 267.5920 15.08856892 66768,6917.829,95.436,540.651,538.736,0.0
53181.0,STARLINK-4273,PAYLOAD,2023-09-23 01:56:51,15.08835219,0.0001443,53.217,197.9228,81.7339,278.3817,0.00019306,2.786e-05,0.0,0 STARLINK-4273,1 53181U 22083BB  23266.08115488  .00002786  00000-0  19306-3 0  9992,2 53181  53.2170 197.9228 0001443  81.7339 278.3817 15.08835219 66896,6917.895,95.438,540.758,538.762,0.0
53181.0,STARLINK-4273,PAYLOAD,2023-09-23 05:07:37,15.08844292,0.0001445,53.217,197.3285,84.6655,275.4502,0.00016832,2.392e-05,0.0,0 STARLINK-4273,1 53181U 22083BB  23266.21363041  .00002392  00000-0  16832-3 0  9991,2 53181  53.2170 197.3285 0001445  84.6655 275.4502 15.08844292 66911,6917.867,95.437,540.732,538.733,0.0
53181.0,STARLINK-4273,PAYLOAD,2023-09-24 01:47:40,15.08821042,0.0001494,53.2171,193.4638,104.9139,255.2018,-0.00031528,-5.3e-05,0.0,0 STARLINK-4273,1 53181U 22083BB  23267.07477779 -.00005300  00000-0 -31528-3 0  9993,2 53181  53.2171 193.4638 0001494 104.9139 255.2018 15.08821042 67049,6917.938,95.439,540.837,538.77,0.0
53181.0,STARLINK-4273,PAYLOAD,2023-09-24 22:27:39,15.08842631,0.0001483,53.217,189.5965,77.5674,282.5484,5.8198e-05,6.38e-06,0.0,0 STARLINK-4273,1 53181U 22083BB  23267.93587869  .00000638  00000-0  58198-4 0  9990,2 53181  53.2170 189.5965 0001483  77.5674 282.5484 15.08842631 66534,6917.872,95.437,540.763,538.711,0.0
53181.0,STARLINK-4273,PAYLOAD,2023-09-25 01:38:24,15.08860991,0.0001488,53.2166,189.0023,83.1772,276.9389,0.00021239,3.096e-05,0.0,0 STARLINK-4273,1 53181U 22083BB  23268.06834379  .00003096  00000-0  21239-3 0  9992,2 53181  53.2166 189.0023 0001488  83.1772 276.9389 15.08860991 67199,6917.816,95.436,540.711,538.652,0.0
53181.0,STARLINK-4273,PAYLOAD,2023-09-25 22:18:26,15.08839015,0.0001494,53.2162,185.1379,95.8753,264.241,0.00039587,6.018e-05,0.0,0 STARLINK-4273,1 53181U 22083BB  23268.92946821  .00006018  00000-0  39587-3 0  9995,2 53181  53.2162 185.1379 0001494  95.8753 264.2410 15.08839015 66683,6917.883,95.438,540.782,538.715,0.0
53181.0,STARLINK-4273,PAYLOAD,2023-09-25 23:53:48,15.08844143,0.0001533,53.2171,184.8409,106.6034,253.5127,0.00042773,6.527e-05,0.0,0 STARLINK-4273,1 53181U 22083BB  23268.99570496  .00006527  00000-0  42773-3 0  9999,2 53181  53.2171 184.8409 0001533 106.6034 253.5127 15.08844143 67337,6917.868,95.437,540.793,538.672,0.0
53181.0,STARLINK-4273,PAYLOAD,2023-09-27 01:20:00,15.08842573,0.0001401,53.217,180.0837,104.654,255.4608,-0.00014804,-2.643e-05,0.0,0 STARLINK-4273,1 53181U 22083BB  23270.05555976 -.00002643  00000-0 -14804-3 0  9996,2 53181  53.2170 180.0837 0001401 104.6540 255.4608 15.08842573 67490,6917.873,95.437,540.707,538.768,0.0
53181.0,STARLINK-4273,PAYLOAD,2023-09-27 04:30:46,15.08842534,0.0001287,53.2163,179.4882,88.0734,272.0406,-0.0001588,-2.814e-05,0.0,0 STARLINK-4273,1 53181U 22083BB  23270.18804003 -.00002814  00000-0 -15880-3 0  9993,2 53181  53.2163 179.4882 0001287  88.0734 272.0406 15.08842534 66875,6917.873,95.437,540.628,538.847,0.0
53181.0,STARLINK-4273,PAYLOAD,2023-09-28 04:21:33,15.08840323,0.0001401,53.2174,175.0257,102.5388,257.5761,-0.00010001,-1.879e-05,0.0,0 STARLINK-4273,1 53181U 22083BB  23271.18164200 -.00001879  00000-0 -10001-3 0  9992,2 53181  53.2174 175.0257 0001401 102.5388 257.5761 15.08840323 67664,6917.879,95.438,540.714,538.775,0.0
53181.0,STARLINK-4273,PAYLOAD,2023-09-28 21:50:48,15.08834751,0.0001356,53.2171,171.7532,113.5864,246.5271,0.00026861,3.989e-05,0.0,0 STARLINK-4273,1 53181U 22083BB  23271.91027836  .00003989  00000-0  26861-3 0  9999,2 53181  53.2171 171.7532 0001356 113.5864 246.5271 15.08834751 67134,6917.896,95.438,540.699,538.823,0.0
53181.0,STARLINK-4273,PAYLOAD,2023-09-29 02:36:56,15.0884794,0.00013,53.217,170.8608,107.6055,252.5079,0.00025865,3.832e-05,0.0,0 STARLINK-4273,1 53181U 22083BB  23272.10899219  .00003832  00000-0  25865-3 0  9993,2 53181  53.2170 170.8608 0001300 107.6055 252.5079 15.08847940 67803,6917.856,95.437,540.62,538.822,0.0
53181.0,STARLINK-4273,PAYLOAD,2023-09-29 23:16:57,15.08850788,0.0001677,53.218,166.9963,111.0397,249.0774,0.00017716,2.533e-05,0.0,0 STARLINK-4273,1 53181U 22083BB  23272.97011334  .00002533  00000-0  17716-3 0  9995,2 53181  53.2180 166.9963 0001677 111.0397 249.0774 15.08850788 67930,6917.847,95.437,540.873,538.552,0.0
53181.0,STARLINK-4273,PAYLOAD,2023-10-01 02:18:32,15.08844165,0.0001448,53.2171,161.9407,89.7747,270.3411,-6.749e-05,-1.362e-05,0.0,0 STARLINK-4273,1 53181U 22083BB  23274.09620433 -.00001362  00000-0 -67490-4 0  9992,2 53181  53.2171 161.9407 0001448  89.7747 270.3411 15.08844165 68101,6917.868,95.437,540.734,538.731,0.0
53181.0,STARLINK-4273,PAYLOAD,2023-10-01 10:15:27,15.0884525,0.0001461,53.2164,160.4562,86.8322,273.2837,2.6778e-05,1.38e-06,0.0,0 STARLINK-4273,1 53181U 22083BB  23274.42740121  .00000138  00000-0  26778-4 0  9998,2 53181  53.2164 160.4562 0001461  86.8322 273.2837 15.08845250 67515,6917.864,95.437,540.74,538.719,0.0
53181.0,STARLINK-4273,PAYLOAD,2023-10-01 21:23:08,15.08857184,0.0001427,53.2167,158.3743,79.2671,280.8482,2.484e-05,1.08e-06,0.0,0 STARLINK-4273,1 53181U 22083BB  23274.89107295  .00000108  00000-0  24840-4 0  9993,2 53181  53.2167 158.3743 0001427  79.2671 280.8482 15.08857184 67586,6917.828,95.436,540.68,538.706,0.0
53181.0,STARLINK-4273,PAYLOAD,2023-10-02 02:09:17,15.0886432,0.0001596,53.2158,157.4815,86.5803,273.5372,9.6183e-05,1.244e-05,0.0,0 STARLINK-4273,1 53181U 22083BB  23275.08978982  .00001244  00000-0  96183-4 0  9995,2 53181  53.2158 157.4815 0001596  86.5803 273.5372 15.08864320 68253,6917.806,95.436,540.775,538.567,0.0
53181.0,STARLINK-4273,PAYLOAD,2023-10-02 19:38:33,15.08843199,0.0001869,53.2157,154.2054,126.7915,233.3249,1.7693e-05,-7e-08,0.0,0 STARLINK-4273,1 53181U 22083BB  23275.81843920 -.00000007  00000-0  17693-4 0  9995,2 53181  53.2157 154.2054 0001869 126.7915 233.3249 15.08843199 68366,6917.871,95.437,541.029,538.443,0.0
53181.0,STARLINK-4273,PAYLOAD,2023-10-03 08:21:38,15.08839479,0.0001381,53.2157,151.8319,91.8154,268.2996,-1.5376e-06,-3.12e-06,0.0,0 STARLINK-4273,1 53181U 22083BB  23276.34836141 -.00000312  00000-0 -15376-5 0  9998,2 53181  53.2157 151.8319 0001381  91.8154 268.2996 15.08839479 67809,6917.882,95.438,540.702,538.792,0.0
53181.0,STARLINK-4273,PAYLOAD,2023-10-03 21:04:43,15.08831391,0.0001416,53.2149,149.4535,96.168,263.9474,-0.00013656,-2.46e-05,0.0,0 STARLINK-4273,1 53181U 22083BB  23276.87828645 -.00002460  00000-0 -13656-3 0  9999,2 53181  53.2149 149.4535 0001416  96.1680 263.9474 15.08831391 68522,6917.907,95.438,540.751,538.792,0.0
